NAVSTAR 77 (USA 289)    
1 43873U 18109A   24160.28161323 -.00000001  00000+0  00000+0 0  9993
2 43873  55.2944 121.3795 0028893 195.5599 283.7977  2.00555684 40256
